*******************************************************************************
Ephemeris / WWW_USER Fri Mar  7 09:53:28 2025 Pasadena, USA      / Horizons    
*******************************************************************************
Target body name: Triton (801)                    {source: nep097_merged}
Center body name: Earth (399)                     {source: nep097_merged}
Center-site name: Mauna Kea
*******************************************************************************
Start time      : A.D. 2018-Aug-22 04:55:00.0000 UT      
Stop  time      : A.D. 2018-Aug-22 15:54:00.0000 UT      
Step-size       : 1 minutes
*******************************************************************************
Target pole/equ : IAU_TRITON                      {East-longitude positive}
Target radii    : 1352.6, 1352.6, 1352.6 km       {Equator_a, b, pole_c}       
Center geodetic : 204.5278, 19.8260847, 4.21024   {E-lon(deg),Lat(deg),Alt(km)}
Center cylindric: 204.5278, 6006.35451, 2151.0229 {E-lon(deg),Dxy(km),Dz(km)}
Center pole/equ : ITRF93                          {East-longitude positive}
Center radii    : 6378.137, 6378.137, 6356.752 km {Equator_a, b, pole_c}       
Target primary  : Neptune
Vis. interferer : MOON (R_eq= 1737.400) km        {source: DE441}
Rel. light bend : Sun                             {source: nep097_merged}
Rel. lght bnd GM: 1.3271E+11 km^3/s^2                                          
Atmos refraction: NO (AIRLESS)
RA format       : HMS
Time format     : CAL 
Calendar mode   : Mixed Julian/Gregorian
RTS-only print  : NO       
EOP file        : eop.250306.p250602                                           
EOP coverage    : DATA-BASED 1962-JAN-20 TO 2025-MAR-06. PREDICTS-> 2025-JUN-01
Units conversion: 1 au= 149597870.700 km, c= 299792.458 km/s, 1 day= 86400.0 s 
Table cut-offs 1: Elevation (-90.0deg=NO ),Airmass (>38.000=NO), Daylight (YES)
Table cut-offs 2: Solar elongation (  0.0,180.0=NO ),Local Hour Angle( 0.0=NO )
Table cut-offs 3: RA/DEC angular rate (     0.0=NO )                           
*******************************************************************************
 Date__(UT)__HR:MN     R.A._________(ICRF)_________DEC
******************************************************
$$SOE
 2018-Aug-22 11:55  m  23 07 15.936012 -06 43 45.93822
 2018-Aug-22 11:56  m  23 07 15.931409 -06 43 45.97445
 2018-Aug-22 11:57  m  23 07 15.926806 -06 43 46.01067
 2018-Aug-22 11:58  m  23 07 15.922202 -06 43 46.04689
 2018-Aug-22 11:59  m  23 07 15.917598 -06 43 46.08311
 2018-Aug-22 12:00  m  23 07 15.912994 -06 43 46.11932
 2018-Aug-22 12:01  m  23 07 15.908390 -06 43 46.15553
 2018-Aug-22 12:02  m  23 07 15.903786 -06 43 46.19174
 2018-Aug-22 12:03  m  23 07 15.899181 -06 43 46.22794
 2018-Aug-22 12:04  m  23 07 15.894576 -06 43 46.26413
 2018-Aug-22 12:05  m  23 07 15.889970 -06 43 46.30032
 2018-Aug-22 12:06  m  23 07 15.885365 -06 43 46.33651
 2018-Aug-22 12:07  m  23 07 15.880759 -06 43 46.37269
 2018-Aug-22 12:08  m  23 07 15.876153 -06 43 46.40887
 2018-Aug-22 12:09  m  23 07 15.871546 -06 43 46.44504
 2018-Aug-22 12:10  m  23 07 15.866940 -06 43 46.48121
 2018-Aug-22 12:11  m  23 07 15.862333 -06 43 46.51738
 2018-Aug-22 12:12  m  23 07 15.857726 -06 43 46.55354
 2018-Aug-22 12:13  m  23 07 15.853118 -06 43 46.58970
 2018-Aug-22 12:14  m  23 07 15.848511 -06 43 46.62585
 2018-Aug-22 12:15  m  23 07 15.843903 -06 43 46.66200
 2018-Aug-22 12:16  m  23 07 15.839295 -06 43 46.69814
 2018-Aug-22 12:17  m  23 07 15.834687 -06 43 46.73428
 2018-Aug-22 12:18  m  23 07 15.830078 -06 43 46.77041
 2018-Aug-22 12:19  m  23 07 15.825469 -06 43 46.80654
 2018-Aug-22 12:20  m  23 07 15.820860 -06 43 46.84267
 2018-Aug-22 12:21  m  23 07 15.816251 -06 43 46.87879
 2018-Aug-22 12:22  m  23 07 15.811642 -06 43 46.91491
 2018-Aug-22 12:23  m  23 07 15.807032 -06 43 46.95102
 2018-Aug-22 12:24  m  23 07 15.802422 -06 43 46.98713
 2018-Aug-22 12:25  m  23 07 15.797812 -06 43 47.02323
 2018-Aug-22 12:26  m  23 07 15.793202 -06 43 47.05933
 2018-Aug-22 12:27  m  23 07 15.788591 -06 43 47.09543
 2018-Aug-22 12:28  m  23 07 15.783980 -06 43 47.13152
 2018-Aug-22 12:29  m  23 07 15.779369 -06 43 47.16760
 2018-Aug-22 12:30  m  23 07 15.774758 -06 43 47.20369
 2018-Aug-22 12:31  m  23 07 15.770146 -06 43 47.23976
 2018-Aug-22 12:32  m  23 07 15.765535 -06 43 47.27584
 2018-Aug-22 12:33  m  23 07 15.760923 -06 43 47.31191
 2018-Aug-22 12:34  m  23 07 15.756311 -06 43 47.34797
 2018-Aug-22 12:35  m  23 07 15.751699 -06 43 47.38403
 2018-Aug-22 12:36  m  23 07 15.747086 -06 43 47.42008
 2018-Aug-22 12:37  m  23 07 15.742474 -06 43 47.45613
 2018-Aug-22 12:38  m  23 07 15.737861 -06 43 47.49218
 2018-Aug-22 12:39  m  23 07 15.733248 -06 43 47.52822
 2018-Aug-22 12:40  m  23 07 15.728634 -06 43 47.56426
 2018-Aug-22 12:41  m  23 07 15.724021 -06 43 47.60029
 2018-Aug-22 12:42  m  23 07 15.719407 -06 43 47.63632
 2018-Aug-22 12:43  m  23 07 15.714793 -06 43 47.67234
 2018-Aug-22 12:44  m  23 07 15.710179 -06 43 47.70836
 2018-Aug-22 12:45  m  23 07 15.705565 -06 43 47.74438
 2018-Aug-22 12:46  m  23 07 15.700951 -06 43 47.78039
 2018-Aug-22 12:47  m  23 07 15.696336 -06 43 47.81639
 2018-Aug-22 12:48  m  23 07 15.691722 -06 43 47.85239
 2018-Aug-22 12:49  m  23 07 15.687107 -06 43 47.88839
 2018-Aug-22 12:50  m  23 07 15.682492 -06 43 47.92438
 2018-Aug-22 12:51  m  23 07 15.677876 -06 43 47.96037
 2018-Aug-22 12:52  m  23 07 15.673261 -06 43 47.99635
 2018-Aug-22 12:53  m  23 07 15.668645 -06 43 48.03233
 2018-Aug-22 12:54  m  23 07 15.664029 -06 43 48.06831
 2018-Aug-22 12:55  m  23 07 15.659413 -06 43 48.10428
 2018-Aug-22 12:56  m  23 07 15.654797 -06 43 48.14024
 2018-Aug-22 12:57  m  23 07 15.650181 -06 43 48.17620
 2018-Aug-22 12:58  m  23 07 15.645565 -06 43 48.21216
 2018-Aug-22 12:59  m  23 07 15.640948 -06 43 48.24811
 2018-Aug-22 13:00  m  23 07 15.636331 -06 43 48.28405
 2018-Aug-22 13:01  m  23 07 15.631714 -06 43 48.32000
 2018-Aug-22 13:02  m  23 07 15.627097 -06 43 48.35593
 2018-Aug-22 13:03  m  23 07 15.622480 -06 43 48.39187
 2018-Aug-22 13:04  m  23 07 15.617863 -06 43 48.42779
 2018-Aug-22 13:05  m  23 07 15.613245 -06 43 48.46372
 2018-Aug-22 13:06  m  23 07 15.608627 -06 43 48.49964
 2018-Aug-22 13:07     23 07 15.604009 -06 43 48.53555
 2018-Aug-22 13:08     23 07 15.599391 -06 43 48.57146
 2018-Aug-22 13:09     23 07 15.594773 -06 43 48.60737
 2018-Aug-22 13:10     23 07 15.590155 -06 43 48.64327
 2018-Aug-22 13:11     23 07 15.585537 -06 43 48.67916
 2018-Aug-22 13:12     23 07 15.580918 -06 43 48.71505
 2018-Aug-22 13:13     23 07 15.576299 -06 43 48.75094
 2018-Aug-22 13:14     23 07 15.571681 -06 43 48.78682
 2018-Aug-22 13:15     23 07 15.567062 -06 43 48.82270
 2018-Aug-22 13:16     23 07 15.562443 -06 43 48.85857
 2018-Aug-22 13:17     23 07 15.557823 -06 43 48.89444
 2018-Aug-22 13:18     23 07 15.553204 -06 43 48.93031
 2018-Aug-22 13:19     23 07 15.548585 -06 43 48.96616
 2018-Aug-22 13:20     23 07 15.543965 -06 43 49.00202
 2018-Aug-22 13:21     23 07 15.539345 -06 43 49.03787
 2018-Aug-22 13:22     23 07 15.534725 -06 43 49.07371
 2018-Aug-22 13:23     23 07 15.530105 -06 43 49.10955
 2018-Aug-22 13:24     23 07 15.525485 -06 43 49.14539
 2018-Aug-22 13:25     23 07 15.520865 -06 43 49.18122
 2018-Aug-22 13:26     23 07 15.516245 -06 43 49.21705
 2018-Aug-22 13:27     23 07 15.511624 -06 43 49.25287
 2018-Aug-22 13:28     23 07 15.507004 -06 43 49.28868
 2018-Aug-22 13:29     23 07 15.502383 -06 43 49.32450
 2018-Aug-22 13:30     23 07 15.497762 -06 43 49.36030
 2018-Aug-22 13:31     23 07 15.493142 -06 43 49.39611
 2018-Aug-22 13:32     23 07 15.488521 -06 43 49.43190
 2018-Aug-22 13:33     23 07 15.483900 -06 43 49.46770
 2018-Aug-22 13:34     23 07 15.479278 -06 43 49.50349
 2018-Aug-22 13:35     23 07 15.474657 -06 43 49.53927
 2018-Aug-22 13:36     23 07 15.470036 -06 43 49.57505
 2018-Aug-22 13:37     23 07 15.465414 -06 43 49.61082
 2018-Aug-22 13:38     23 07 15.460793 -06 43 49.64659
 2018-Aug-22 13:39     23 07 15.456171 -06 43 49.68236
 2018-Aug-22 13:40     23 07 15.451549 -06 43 49.71812
 2018-Aug-22 13:41     23 07 15.446928 -06 43 49.75387
 2018-Aug-22 13:42     23 07 15.442306 -06 43 49.78962
 2018-Aug-22 13:43     23 07 15.437684 -06 43 49.82537
 2018-Aug-22 13:44     23 07 15.433062 -06 43 49.86111
 2018-Aug-22 13:45     23 07 15.428440 -06 43 49.89685
 2018-Aug-22 13:46     23 07 15.423817 -06 43 49.93258
 2018-Aug-22 13:47     23 07 15.419195 -06 43 49.96831
 2018-Aug-22 13:48     23 07 15.414573 -06 43 50.00403
 2018-Aug-22 13:49     23 07 15.409950 -06 43 50.03975
 2018-Aug-22 13:50     23 07 15.405327 -06 43 50.07546
 2018-Aug-22 13:51     23 07 15.400705 -06 43 50.11117
 2018-Aug-22 13:52     23 07 15.396082 -06 43 50.14687
 2018-Aug-22 13:53     23 07 15.391459 -06 43 50.18257
 2018-Aug-22 13:54     23 07 15.386837 -06 43 50.21826
 2018-Aug-22 13:55     23 07 15.382214 -06 43 50.25395
 2018-Aug-22 13:56     23 07 15.377591 -06 43 50.28963
 2018-Aug-22 13:57     23 07 15.372968 -06 43 50.32531
 2018-Aug-22 13:58     23 07 15.368345 -06 43 50.36099
 2018-Aug-22 13:59     23 07 15.363721 -06 43 50.39666
 2018-Aug-22 14:00     23 07 15.359098 -06 43 50.43232
 2018-Aug-22 14:01     23 07 15.354475 -06 43 50.46798
 2018-Aug-22 14:02     23 07 15.349852 -06 43 50.50364
 2018-Aug-22 14:03     23 07 15.345228 -06 43 50.53929
 2018-Aug-22 14:04     23 07 15.340605 -06 43 50.57493
 2018-Aug-22 14:05     23 07 15.335981 -06 43 50.61057
 2018-Aug-22 14:06     23 07 15.331358 -06 43 50.64621
 2018-Aug-22 14:07     23 07 15.326734 -06 43 50.68184
 2018-Aug-22 14:08     23 07 15.322110 -06 43 50.71746
 2018-Aug-22 14:09     23 07 15.317487 -06 43 50.75309
 2018-Aug-22 14:10     23 07 15.312863 -06 43 50.78870
 2018-Aug-22 14:11     23 07 15.308239 -06 43 50.82431
 2018-Aug-22 14:12     23 07 15.303615 -06 43 50.85992
 2018-Aug-22 14:13     23 07 15.298992 -06 43 50.89552
 2018-Aug-22 14:14     23 07 15.294368 -06 43 50.93112
